$$SOE
2459580.500000000, A.D. 2022-Jan-01 00:00:00.0000, 3.491472059843231E+08, -9.892528786224250E+07, -6.019666564194357E+07,
2459587.500000000, A.D. 2022-Jan-08 00:00:00.0000, 3.494630134004518E+08, -8.692227006622577E+07, -6.028045741959839E+07,
2459594.500000000, A.D. 2022-Jan-15 00:00:00.0000, 3.494305062558268E+08, -7.483273673873794E+07, -6.030409701078651E+07,
2459601.500000000, A.D. 2022-Jan-22 00:00:00.0000, 3.490418256375065E+08, -6.266705642517328E+07, -6.026620097541882E+07,
2459608.500000000, A.D. 2022-Jan-29 00:00:00.0000, 3.482892962640617E+08, -5.043618615451577E+07, -6.016541616625729E+07,
2459615.500000000, A.D. 2022-Feb-05 00:00:00.0000, 3.471654631536241E+08, -3.815168630640298E+07, -6.000042626306371E+07,
2459622.500000000, A.D. 2022-Feb-12 00:00:00.0000, 3.456631335191409E+08, -2.582573448822034E+07, -5.976995912564918E+07,
2459629.500000000, A.D. 2022-Feb-19 00:00:00.0000, 3.437754225807756E+08, -1.347113564755235E+07, -5.947279465423923E+07,
2459636.500000000, A.D. 2022-Feb-26 00:00:00.0000, 3.414958019604691E+08, -1.101328707120404E+06, -5.910777309318082E+07,
2459643.500000000, A.D. 2022-Mar-05 00:00:00.0000, 3.388181507457402E+08, 1.126961012500286E+07, -5.867380383203039E+07,
2459650.500000000, A.D. 2022-Mar-12 00:00:00.0000, 3.357368093158141E+08, 2.362696779343309E+07, -5.816987470902310E+07,
2459657.500000000, A.D. 2022-Mar-19 00:00:00.0000, 3.322466358084160E+08, 3.595539911892094E+07, -5.759506178936920E+07,
2459664.500000000, A.D. 2022-Mar-26 00:00:00.0000, 3.283430649855521E+08, 4.823893632311304E+07, -5.694853957678796E+07,
2459671.500000000, A.D. 2022-Apr-02 00:00:00.0000, 3.240221692238244E+08, 6.046100382400151E+07, -5.622959161146222E+07,
2459678.500000000, A.D. 2022-Apr-09 00:00:00.0000, 3.192807214735033E+08, 7.260443882282817E+07, -5.543762140661544E+07,
2459685.500000000, A.D. 2022-Apr-16 00:00:00.0000, 3.141162600194809E+08, 8.465151883001591E+07, -5.457216361349273E+07,
2459692.500000000, A.D. 2022-Apr-23 00:00:00.0000, 3.085271531530611E+08, 9.658399767833681E+07, -5.363289510238478E+07,
2459699.500000000, A.D. 2022-Apr-30 00:00:00.0000, 3.025126611784689E+08, 1.083831481933113E+08, -5.261964585070716E+07,
2459706.500000000, A.D. 2022-May-07 00:00:00.0000, 2.960729980164988E+08, 1.200298098818670E+08, -5.153240994352625E+07,
2459713.500000000, A.D. 2022-May-14 00:00:00.0000, 2.892093928908871E+08, 1.315044449210334E+08, -5.037135640954178E+07,
2459720.500000000, A.D. 2022-May-21 00:00:00.0000, 2.819241490802788E+08, 1.427872033433956E+08, -4.913683947341424E+07,
2459727.500000000, A.D. 2022-May-28 00:00:00.0000, 2.742206982036558E+08, 1.538579964680596E+08, -4.782940807649056E+07,
2459734.500000000, A.D. 2022-Jun-04 00:00:00.0000, 2.661036492089165E+08, 1.646965781212781E+08, -4.644981452494664E+07,
2459741.500000000, A.D. 2022-Jun-11 00:00:00.0000, 2.575788310683650E+08, 1.752826333389046E+08, -4.499902208035435E+07,
2459748.500000000, A.D. 2022-Jun-18 00:00:00.0000, 2.486533280715752E+08, 1.855958740731995E+08, -4.347821129547618E+07,
2459755.500000000, A.D. 2022-Jun-25 00:00:00.0000, 2.393355066200252E+08, 1.956161411893133E+08, -4.188878490470180E+07,
2459762.500000000, A.D. 2022-Jul-02 00:00:00.0000, 2.296350325898724E+08, 2.053235118082061E+08, -4.023237110021394E+07,
2459769.500000000, A.D. 2022-Jul-09 00:00:00.0000, 2.195628786795598E+08, 2.146984110983108E+08, -3.851082504402276E+07,
2459776.500000000, A.D. 2022-Jul-16 00:00:00.0000, 2.091313208387778E+08, 2.237217283268096E+08, -3.672622837071940E+07,
2459783.500000000, A.D. 2022-Jul-23 00:00:00.0000, 1.983539208763087E+08, 2.323749357992668E+08, -3.488088634357049E+07,
2459790.500000000, A.D. 2022-Jul-30 00:00:00.0000, 1.872454948211658E+08, 2.406402057636750E+08, -3.297732285208951E+07,
2459797.500000000, A.D. 2022-Aug-06 00:00:00.0000, 1.758220703737602E+08, 2.485005242558331E+08, -3.101827348105025E+07,
2459804.500000000, A.D. 2022-Aug-13 00:00:00.0000, 1.641008326151554E+08, 2.559398028921403E+08, -2.900667634704667E+07,
2459811.500000000, A.D. 2022-Aug-20 00:00:00.0000, 1.521000566716556E+08, 2.629429863349737E+08, -2.694566064370163E+07,
2459818.500000000, A.D. 2022-Aug-27 00:00:00.0000, 1.398390279538482E+08, 2.694961529520402E+08, -2.483853305296366E+07,
2459825.500000000, A.D. 2022-Sep-03 00:00:00.0000, 1.273379510424721E+08, 2.755866068762252E+08, -2.268876219218524E+07,
2459832.500000000, A.D. 2022-Sep-10 00:00:00.0000, 1.146178483946144E+08, 2.812029599320475E+08, -2.049996128596543E+07,
2459839.500000000, A.D. 2022-Sep-17 00:00:00.0000, 1.017004502214365E+08, 2.863352020463002E+08, -1.827586929030100E+07,
2459846.500000000, A.D. 2022-Sep-24 00:00:00.0000, 8.860807712744091E+07, 2.909747589329147E+08, -1.602033074042331E+07,
2459853.500000000, A.D. 2022-Oct-01 00:00:00.0000, 7.536351744808085E+07, 2.951145361289696E+08, -1.373727463783641E+07,
2459860.500000000, A.D. 2022-Oct-08 00:00:00.0000, 6.198990151000465E+07, 2.987489492906585E+08, -1.143069268491736E+07,
2459867.500000000, A.D. 2022-Oct-15 00:00:00.0000, 4.851057377156305E+07, 3.018739416370361E+08, -9.104617010514989E+06,
2459874.500000000, A.D. 2022-Oct-22 00:00:00.0000, 3.494896256351968E+07, 3.044869868361565E+08, -6.763097652185515E+06,
2459881.500000000, A.D. 2022-Oct-29 00:00:00.0000, 2.132845177163649E+07, 3.065870750222835E+08, -4.410180556272432E+06,
2459888.500000000, A.D. 2022-Nov-05 00:00:00.0000, 7.672258322589316E+06, 3.081746852743902E+08, -2.049886372890264E+06,
2459895.500000000, A.D. 2022-Nov-12 00:00:00.0000, -5.996684858540200E+06, 3.092517466537611E+08, 3.138099533614963E+05,
2459902.500000000, A.D. 2022-Nov-19 00:00:00.0000, -1.965583969057631E+07, 3.098215878914683E+08, 2.676998532173350E+06,
2459909.500000000, A.D. 2022-Nov-26 00:00:00.0000, -3.328316607655205E+07, 3.098888765594437E+08, 5.035852541625932E+06,
2459916.500000000, A.D. 2022-Dec-03 00:00:00.0000, -4.685721616274630E+07, 3.094595490837460E+08, 7.386644712758213E+06,
2459923.500000000, A.D. 2022-Dec-10 00:00:00.0000, -6.035721889591283E+07, 3.085407330804049E+08, 9.725762144605085E+06,
2459930.500000000, A.D. 2022-Dec-17 00:00:00.0000, -7.376315431938811E+07, 3.071406634965347E+08, 1.204971934993011E+07,
2459937.500000000, A.D. 2022-Dec-24 00:00:00.0000, -8.705581719807285E+07, 3.052685940012277E+08, 1.435516946161285E+07,
2459944.500000000, A.D. 2022-Dec-31 00:00:00.0000, -1.002168695348266E+08, 3.029347052071211E+08, 1.663891355940451E+07,
2459951.500000000, A.D. 2023-Jan-07 00:00:00.0000, -1.132288819790313E+08, 3.001500120886763E+08, 1.889790820291556E+07,
2459958.500000000, A.D. 2023-Jan-14 00:00:00.0000, -1.260753663967380E+08, 2.969262724036236E+08, 2.112927144062521E+07,
2459965.500000000, A.D. 2023-Jan-21 00:00:00.0000, -1.387408006956396E+08, 2.932758941291786E+08, 2.333028716904920E+07,
2459972.500000000, A.D. 2023-Jan-28 00:00:00.0000, -1.512106428191857E+08, 2.892118427562472E+08, 2.549840758583616E+07,
2459979.500000000, A.D. 2023-Feb-04 00:00:00.0000, -1.634713348116169E+08, 2.847475523868144E+08, 2.763125411786661E+07,
2459986.500000000, A.D. 2023-Feb-11 00:00:00.0000, -1.755102995010763E+08, 2.798968412229931E+08, 2.972661710106160E+07,
2459993.500000000, A.D. 2023-Feb-18 00:00:00.0000, -1.873159306540008E+08, 2.746738312543768E+08, 3.178245428709871E+07,
2460000.500000000, A.D. 2023-Feb-25 00:00:00.0000, -1.988775771486040E+08, 2.690928724709299E+08, 3.379688828064716E+07,
2460007.500000000, A.D. 2023-Mar-04 00:00:00.0000, -2.101855218750360E+08, 2.631684719777448E+08, 3.576820304026940E+07,
2460014.500000000, A.D. 2023-Mar-11 00:00:00.0000, -2.212309561259258E+08, 2.569152282475280E+08, 3.769483957819282E+07,
2460021.500000000, A.D. 2023-Mar-18 00:00:00.0000, -2.320059501921699E+08, 2.503477705870097E+08, 3.957539098285535E+07,
2460028.500000000, A.D. 2023-Mar-25 00:00:00.0000, -2.425034206816239E+08, 2.434807037999467E+08, 4.140859686678162E+07,
2460035.500000000, A.D. 2023-Apr-01 00:00:00.0000, -2.527170948081428E+08, 2.363285583881881E+08, 4.319333734962103E+07,
2460042.500000000, A.D. 2023-Apr-08 00:00:00.0000, -2.626414728846495E+08, 2.289057473963273E+08, 4.492862684032327E+07,
2460049.500000000, A.D. 2023-Apr-15 00:00:00.0000, -2.722717919181140E+08, 2.212265286226780E+08, 4.661360784025587E+07,
2460056.500000000, A.D. 2023-Apr-22 00:00:00.0000, -2.816039889897050E+08, 2.133049689301925E+08, 4.824754443852411E+07,
2460063.500000000, A.D. 2023-Apr-29 00:00:00.0000, -2.906346621110285E+08, 2.051549126503946E+08, 4.982981550669958E+07,
2460070.500000000, A.D. 2023-May-06 00:00:00.0000, -2.993610306966102E+08, 1.967899555753299E+08, 5.135990796436778E+07,
2460077.500000000, A.D. 2023-May-13 00:00:00.0000, -3.077808969605979E+08, 1.882234233498300E+08, 5.283741018868731E+07,
2460084.500000000, A.D. 2023-May-20 00:00:00.0000, -3.158926082832037E+08, 1.794683534728866E+08, 5.426200555512597E+07,
2460091.500000000, A.D. 2023-May-27 00:00:00.0000, -3.236950205863905E+08, 1.705374805797726E+08, 5.563346613066866E+07,
2460098.500000000, A.D. 2023-Jun-03 00:00:00.0000, -3.311874628485538E+08, 1.614432247382762E+08, 5.695164655020854E+07,
2460105.500000000, A.D. 2023-Jun-10 00:00:00.0000, -3.383697028787891E+08, 1.521976824597095E+08, 5.821647809897956E+07,
2460112.500000000, A.D. 2023-Jun-17 00:00:00.0000, -3.452419143688471E+08, 1.428126200873643E+08, 5.942796300717757E+07,
2460119.500000000, A.D. 2023-Jun-24 00:00:00.0000, -3.518046449786037E+08, 1.332994693518274E+08, 6.058616894541131E+07,
2460126.500000000, A.D. 2023-Jul-01 00:00:00.0000, -3.580587852512339E+08, 1.236693256685380E+08, 6.169122377412670E+07,
2460133.500000000, A.D. 2023-Jul-08 00:00:00.0000, -3.640055400601075E+08, 1.139329497621583E+08, 6.274331077265292E+07,
2460140.500000000, A.D. 2023-Jul-15 00:00:00.0000, -3.696464038756396E+08, 1.041007695686645E+08, 6.374266423604485E+07,
2460147.500000000, A.D. 2023-Jul-22 00:00:00.0000, -3.749831363229944E+08, 9.418288118078992E+07, 6.468956503158235E+07,
$$EOE